$$SOE
2460721.500000000, A.D. 2025-Feb-15 00:00:00.0000, 2.951710399458561E+08, 5.046434597949626E+07, -4.317646209136692E+07,
2460728.500000000, A.D. 2025-Feb-22 00:00:00.0000, 2.946095498108199E+08, 6.412327731742539E+07, -4.288509418999709E+07,
2460735.500000000, A.D. 2025-Mar-01 00:00:00.0000, 2.935417743013666E+08, 7.767209101844300E+07, -4.252002523289931E+07,
2460742.500000000, A.D. 2025-Mar-08 00:00:00.0000, 2.919796649465499E+08, 9.109018406077413E+07, -4.208334791805726E+07,
2460749.500000000, A.D. 2025-Mar-15 00:00:00.0000, 2.899359701368776E+08, 1.043581212727741E+08, -4.157725569251977E+07,
2460756.500000000, A.D. 2025-Mar-22 00:00:00.0000, 2.874241205971346E+08, 1.174576468212088E+08, -4.100402562199916E+07,
2460763.500000000, A.D. 2025-Mar-29 00:00:00.0000, 2.844581210755377E+08, 1.303716829391434E+08, -4.036600245117770E+07,
2460770.500000000, A.D. 2025-Apr-05 00:00:00.0000, 2.810524493491424E+08, 1.430843202073218E+08, -3.966558372538450E+07,
2460777.500000000, A.D. 2025-Apr-12 00:00:00.0000, 2.772219611977193E+08, 1.555808006791186E+08, -3.890520585655543E+07,
2460784.500000000, A.D. 2025-Apr-19 00:00:00.0000, 2.729818015570548E+08, 1.678474941300292E+08, -3.808733123026502E+07,
2460791.500000000, A.D. 2025-Apr-26 00:00:00.0000, 2.683473223571859E+08, 1.798718683444066E+08, -3.721443641352617E+07,
2460798.500000000, A.D. 2025-May-03 00:00:00.0000, 2.633340072494674E+08, 1.916424545113238E+08, -3.628900146990589E+07,
2460805.500000000, A.D. 2025-May-10 00:00:00.0000, 2.579574032192157E+08, 2.031488087158110E+08, -3.531350036446477E+07,
2460812.500000000, A.D. 2025-May-17 00:00:00.0000, 2.522330589877057E+08, 2.143814703791491E+08, -3.429039243200503E+07,
2460819.500000000, A.D. 2025-May-24 00:00:00.0000, 2.461764701636626E+08, 2.253319184017341E+08, -3.322211488510819E+07,
2460826.500000000, A.D. 2025-May-31 00:00:00.0000, 2.398030312867401E+08, 2.359925260383039E+08, -3.211107632323302E+07,
2460833.500000000, A.D. 2025-Jun-07 00:00:00.0000, 2.331279940374246E+08, 2.463565163358275E+08, -3.095965104968151E+07,
2460840.500000000, A.D. 2025-Jun-14 00:00:00.0000, 2.261664288820647E+08, 2.564179180091765E+08, -2.977017397052623E+07,
2460847.500000000, A.D. 2025-Jun-21 00:00:00.0000, 2.189331909907412E+08, 2.661715189587808E+08, -2.854493639119151E+07,
2460854.500000000, A.D. 2025-Jun-28 00:00:00.0000, 2.114428931754304E+08, 2.756128195890767E+08, -2.728618279129486E+07,
2460861.500000000, A.D. 2025-Jul-05 00:00:00.0000, 2.037098839392293E+08, 2.847379884027702E+08, -2.599610819877563E+07,
2460868.500000000, A.D. 2025-Jul-12 00:00:00.0000, 1.957482290565791E+08, 2.935438193271751E+08, -2.467685605777456E+07,
2460875.500000000, A.D. 2025-Jul-19 00:00:00.0000, 1.875716964983409E+08, 3.020276904061488E+08, -2.333051659555641E+07,
2460882.500000000, A.D. 2025-Jul-26 00:00:00.0000, 1.791937445517133E+08, 3.101875239609177E+08, -2.195912565634663E+07,
2460889.500000000, A.D. 2025-Aug-02 00:00:00.0000, 1.706275128587838E+08, 3.180217483585626E+08, -2.056466395359264E+07,
2460896.500000000, A.D. 2025-Aug-09 00:00:00.0000, 1.618858160761539E+08, 3.255292614532648E+08, -1.914905669473107E+07,
2460903.500000000, A.D. 2025-Aug-16 00:00:00.0000, 1.529811399332359E+08, 3.327093956837543E+08, -1.771417354489034E+07,
2460910.500000000, A.D. 2025-Aug-23 00:00:00.0000, 1.439256397036442E+08, 3.395618848614407E+08, -1.626182891263267E+07,
2460917.500000000, A.D. 2025-Aug-30 00:00:00.0000, 1.347311411609473E+08, 3.460868333581019E+08, -1.479378249073464E+07,
2460924.500000000, A.D. 2025-Sep-06 00:00:00.0000, 1.254091423627664E+08, 3.522846886678131E+08, -1.331173980486505E+07,
2460931.500000000, A.D. 2025-Sep-13 00:00:00.0000, 1.159708143687695E+08, 3.581562148201512E+08, -1.181735278708610E+07,
2460938.500000000, A.D. 2025-Sep-20 00:00:00.0000, 1.064270039640180E+08, 3.637024649640723E+08, -1.031222078019433E+07,
2460945.500000000, A.D. 2025-Sep-27 00:00:00.0000, 9.678823927653222E+07, 3.689247561912521E+08, -8.797891791662037E+06,
2460952.500000000, A.D. 2025-Oct-04 00:00:00.0000, 8.706473612050423E+07, 3.738246470773798E+08, -7.275863745912954E+06,
2460959.500000000, A.D. 2025-Oct-11 00:00:00.0000, 7.726640455257981E+07, 3.784039169302521E+08, -5.747585757448241E+06,
2460966.500000000, A.D. 2025-Oct-18 00:00:00.0000, 6.740285580018407E+07, 3.826645463990619E+08, -4.214459455398589E+06,
2460973.500000000, A.D. 2025-Oct-25 00:00:00.0000, 5.748340959007043E+07, 3.866086993830095E+08, -2.677840355780691E+06,
2460980.500000000, A.D. 2025-Nov-01 00:00:00.0000, 4.751710181770666E+07, 3.902387061816351E+08, -1.139039270241350E+06,
2460987.500000000, A.D. 2025-Nov-08 00:00:00.0000, 3.751269250502463E+07, 3.935570477831771E+08, 4.006762546905279E+05,
2460994.500000000, A.D. 2025-Nov-15 00:00:00.0000, 2.747867411822420E+07, 3.965663411615688E+08, 1.940080459572077E+06,
2461001.500000000, A.D. 2025-Nov-22 00:00:00.0000, 1.742328058192905E+07, 3.992693257337055E+08, 3.477987844916254E+06,
2461008.500000000, A.D. 2025-Nov-29 00:00:00.0000, 7.354496779810454E+06, 4.016688520470989E+08, 5.013251709012449E+06,
2461015.500000000, A.D. 2025-Dec-06 00:00:00.0000, -2.719933781774166E+06, 4.037678724973794E+08, 6.544762954444081E+06,
2461022.500000000, A.D. 2025-Dec-13 00:00:00.0000, -1.279250275463713E+07, 4.055694306371788E+08, 8.071448853528351E+06,
2461029.500000000, A.D. 2025-Dec-20 00:00:00.0000, -2.285592871990180E+07, 4.070766500397682E+08, 9.592271540529311E+06,
2461036.500000000, A.D. 2025-Dec-27 00:00:00.0000, -3.290314805207252E+07, 4.082927252554312E+08, 1.110622654409438E+07,
2461043.500000000, A.D. 2026-Jan-03 00:00:00.0000, -4.292730635888837E+07, 4.092209141891431E+08, 1.261234144604051E+07,
2461050.500000000, A.D. 2026-Jan-10 00:00:00.0000, -5.292175040935657E+07, 4.098645311677064E+08, 1.410967460313395E+07,
2461057.500000000, A.D. 2026-Jan-17 00:00:00.0000, -6.288002033642288E+07, 4.102269405572697E+08, 1.559731390477654E+07,
2461064.500000000, A.D. 2026-Jan-24 00:00:00.0000, -7.279584205150887E+07, 4.103115509109126E+08, 1.707437556268859E+07,
2461071.500000000, A.D. 2026-Jan-31 00:00:00.0000, -8.266311985884352E+07, 4.101218095993856E+08, 1.854000293094730E+07,
2461078.500000000, A.D. 2026-Feb-07 00:00:00.0000, -9.247592921609055E+07, 4.096611978306704E+08, 1.999336534691033E+07,
2461085.500000000, A.D. 2026-Feb-14 00:00:00.0000, -1.022285093936576E+08, 4.089332260079646E+08, 2.143365696913192E+07,
2461092.500000000, A.D. 2026-Feb-21 00:00:00.0000, -1.119152556490216E+08, 4.079414299701218E+08, 2.286009562418085E+07,
2461099.500000000, A.D. 2026-Feb-28 00:00:00.0000, -1.215307120033201E+08, 4.066893692383230E+08, 2.427192185613406E+07,
2461106.500000000, A.D. 2026-Mar-07 00:00:00.0000, -1.310695666775424E+08, 4.051806252901835E+08, 2.566839820781991E+07,
2461113.500000000, A.D. 2026-Mar-14 00:00:00.0000, -1.405266474110695E+08, 4.034187974965504E+08, 2.704880828807136E+07,
2461120.500000000, A.D. 2026-Mar-21 00:00:00.0000, -1.498969148817933E+08, 4.014074995927312E+08, 2.841245569794378E+07,
2461127.500000000, A.D. 2026-Mar-28 00:00:00.0000, -1.591754562361653E+08, 3.991503576926802E+08, 2.975866308370298E+07,
2461134.500000000, A.D. 2026-Apr-04 00:00:00.0000, -1.683574793292308E+08, 3.966510088591492E+08, 3.108677129233873E+07,
2461141.500000000, A.D. 2026-Apr-11 00:00:00.0000, -1.774383073974886E+08, 3.939130998492909E+08, 3.239613857441533E+07,
2461148.500000000, A.D. 2026-Apr-18 00:00:00.0000, -1.864133740017591E+08, 3.909402860108836E+08, 3.368613981847018E+07,
2461155.500000000, A.D. 2026-Apr-25 00:00:00.0000, -1.952782181896348E+08, 3.877362303275937E+08, 3.495616581326780E+07,
2461162.500000000, A.D. 2026-May-02 00:00:00.0000, -2.040284798409473E+08, 3.843046025683159E+08, 3.620562253183064E+07,
2461169.500000000, A.D. 2026-May-09 00:00:00.0000, -2.126598950648782E+08, 3.806490784590465E+08, 3.743393041934352E+07,
2461176.500000000, A.D. 2026-May-16 00:00:00.0000, -2.211682912643190E+08, 3.767733389999927E+08, 3.864052366032682E+07,
2461183.500000000, A.D. 2026-May-23 00:00:00.0000, -2.295495818113585E+08, 3.726810709355929E+08, 3.982484950270282E+07,
2461190.500000000, A.D. 2026-May-30 00:00:00.0000, -2.377997624103202E+08, 3.683759686862337E+08, 4.098636785466619E+07,
2461197.500000000, A.D. 2026-Jun-06 00:00:00.0000, -2.459149094618127E+08, 3.638617344601269E+08, 4.212455091521285E+07,
2461204.500000000, A.D. 2026-Jun-13 00:00:00.0000, -2.538911767568591E+08, 3.591420767344614E+08, 4.323888251749386E+07,
2461211.500000000, A.D. 2026-Jun-20 00:00:00.0000, -2.617247910001051E+08, 3.542207100252022E+08, 4.432885746943845E+07,
2461218.500000000, A.D. 2026-Jun-27 00:00:00.0000, -2.694120478565449E+08, 3.491013556020921E+08, 4.539398101890241E+07,
2461225.500000000, A.D. 2026-Jul-04 00:00:00.0000, -2.769493085158065E+08, 3.437877423682725E+08, 4.643376837895681E+07,
2461232.500000000, A.D. 2026-Jul-11 00:00:00.0000, -2.843329965147794E+08, 3.382836077658439E+08, 4.744774427814434E+07,
2461239.500000000, A.D. 2026-Jul-18 00:00:00.0000, -2.915595947215909E+08, 3.325926987269773E+08, 4.843544252830026E+07,
2461246.500000000, A.D. 2026-Jul-25 00:00:00.0000, -2.986256424527798E+08, 3.267187726680638E+08, 4.939640560704951E+07,
2461253.500000000, A.D. 2026-Aug-01 00:00:00.0000, -3.055277326722025E+08, 3.206655984743218E+08, 5.033018424588369E+07,
2461260.500000000, A.D. 2026-Aug-08 00:00:00.0000, -3.122625090536563E+08, 3.144369574351102E+08, 5.123633700053123E+07,
2461267.500000000, A.D. 2026-Aug-15 00:00:00.0000, -3.188266624894368E+08, 3.080366445768683E+08, 5.211442980181518E+07,
2461274.500000000, A.D. 2026-Aug-22 00:00:00.0000, -3.252169278042140E+08, 3.014684716122382E+08, 5.296403565623884E+07,
2461281.500000000, A.D. 2026-Aug-29 00:00:00.0000, -3.314300829626237E+08, 2.947362701319634E+08, 5.378473459396739E+07,
2461288.500000000, A.D. 2026-Sep-05 00:00:00.0000, -3.374629486337595E+08, 2.878438921710610E+08, 5.457611343388088E+07,
$$EOE